start=new Date('2022-02-17T00:00:00.000Z').valueOf();
sats=[{"REV_AT_EPOCH":"8327","RCS_SIZE":"LARGE","MEAN_MOTION":"15.06391318","CENTER_NAME":"EARTH","EPHEMERIS_TYPE":"0","TLE_LINE1":"1 46163U 20057AY  22047.80899821 -.00000465  00000-0 -12296-4 0  9995","MEAN_MOTION_DDOT":"0.0000000000000","MEAN_MOTION_DOT":"-0.00000465","PERIAPSIS":"546.169","MEAN_ANOMALY":"298.4286","CLASSIFICATION_TYPE":"U","PERIOD":"95.593","REF_FRAME":"TEME","OBJECT_TYPE":"PAYLOAD","EPOCH":"2022-02-16T19:24:57.445344","ELEMENT_SET_NO":"999","DECAY_DATE":null,"APOAPSIS":"548.312","OBJECT_NAME":"STARLINK-1610","NORAD_CAT_ID":"46163","ECCENTRICITY":"0.00015470","COUNTRY_CODE":"US","SITE":"AFETR","ARG_OF_PERICENTER":"61.6859","OBJECT_ID":"2020-057AY","MEAN_ELEMENT_THEORY":"SGP4","RA_OF_ASC_NODE":"89.0417","SEMIMAJOR_AXIS":"6925.375","BSTAR":"-0.00001229600000","FILE":"3302660","GP_ID":"196130491","TLE_LINE2":"2 46163  53.0524  89.0417 0001547  61.6859 298.4286 15.06391318 83278","LAUNCH_DATE":"2020-08-18","TIME_SYSTEM":"UTC","INCLINATION":"53.0524"},{"PERIOD":"95.594","CLASSIFICATION_TYPE":"U","MEAN_ANOMALY":"288.2441","ELEMENT_SET_NO":"999","APOAPSIS":"548.193","DECAY_DATE":null,"OBJECT_TYPE":"PAYLOAD","REF_FRAME":"TEME","EPOCH":"2022-02-16T19:19:40.120608","CENTER_NAME":"EARTH","EPHEMERIS_TYPE":"0","REV_AT_EPOCH":"8453","RCS_SIZE":"LARGE","MEAN_MOTION":"15.06377324","MEAN_MOTION_DDOT":"0.0000000000000","PERIAPSIS":"546.373","MEAN_MOTION_DOT":"-0.00000419","TLE_LINE1":"1 46164U 20057AZ  22047.80532547 -.00000419  00000-0 -92372-5 0  9998","LAUNCH_DATE":"2020-08-18","TIME_SYSTEM":"UTC","TLE_LINE2":"2 46164  53.0538  89.0551 0001314  71.8691 288.2441 15.06377324 84533","INCLINATION":"53.0538","GP_ID":"196130242","NORAD_CAT_ID":"46164","ECCENTRICITY":"0.00013140","SITE":"AFETR","COUNTRY_CODE":"US","OBJECT_NAME":"STARLINK-1612","SEMIMAJOR_AXIS":"6925.418","FILE":"3302660","BSTAR":"-0.00000923720000","OBJECT_ID":"2020-057AZ","ARG_OF_PERICENTER":"71.8691","RA_OF_ASC_NODE":"89.0551","MEAN_ELEMENT_THEORY":"SGP4"},{"TLE_LINE1":"1 46165U 20057BA  22047.91367523  .00016010  00000-0  10473-2 0  9992","PERIAPSIS":"541.792","MEAN_MOTION_DOT":"0.00016010","MEAN_MOTION_DDOT":"0.0000000000000","MEAN_MOTION":"15.07925082","RCS_SIZE":"LARGE","REV_AT_EPOCH":"8273","EPHEMERIS_TYPE":"0","CENTER_NAME":"EARTH","EPOCH":"2022-02-16T21:55:41.539872","OBJECT_TYPE":"PAYLOAD","REF_FRAME":"TEME","APOAPSIS":"543.294","DECAY_DATE":null,"ELEMENT_SET_NO":"999","MEAN_ANOMALY":"225.0894","PERIOD":"95.495","CLASSIFICATION_TYPE":"U","RA_OF_ASC_NODE":"128.1903","MEAN_ELEMENT_THEORY":"SGP4","ARG_OF_PERICENTER":"135.0183","OBJECT_ID":"2020-057BA","BSTAR":"0.00104730000000","FILE":"3302660","SEMIMAJOR_AXIS":"6920.678","OBJECT_NAME":"STARLINK-1613","COUNTRY_CODE":"US","SITE":"AFETR","NORAD_CAT_ID":"46165","ECCENTRICITY":"0.00010850","GP_ID":"196128990","INCLINATION":"53.0528","LAUNCH_DATE":"2020-08-18","TIME_SYSTEM":"UTC","TLE_LINE2":"2 46165  53.0528 128.1903 0001085 135.0183 225.0894 15.07925082 82735"},{"MEAN_MOTION":"15.06393754","RCS_SIZE":"LARGE","REV_AT_EPOCH":"8273","EPHEMERIS_TYPE":"0","CENTER_NAME":"EARTH","TLE_LINE1":"1 46166U 20057BB  22047.92326220  .00000600  00000-0  59206-4 0  9990","PERIAPSIS":"546.341","MEAN_MOTION_DOT":"0.00000600","MEAN_MOTION_DDOT":"0.0000000000000","MEAN_ANOMALY":"279.9583","PERIOD":"95.593","CLASSIFICATION_TYPE":"U","EPOCH":"2022-02-16T22:09:29.854080","OBJECT_TYPE":"PAYLOAD","REF_FRAME":"TEME","APOAPSIS":"548.124","DECAY_DATE":null,"ELEMENT_SET_NO":"999","OBJECT_NAME":"STARLINK-1615","COUNTRY_CODE":"US","SITE":"AFETR","ECCENTRICITY":"0.00012870","NORAD_CAT_ID":"46166","RA_OF_ASC_NODE":"128.5218","MEAN_ELEMENT_THEORY":"SGP4","OBJECT_ID":"2020-057BB","ARG_OF_PERICENTER":"80.1551","BSTAR":"0.00005920600000","FILE":"3302660","SEMIMAJOR_AXIS":"6925.368","GP_ID":"196129740","INCLINATION":"53.0536","LAUNCH_DATE":"2020-08-18","TIME_SYSTEM":"UTC","TLE_LINE2":"2 46166  53.0536 128.5218 0001287  80.1551 279.9583 15.06393754 82738"},{"GP_ID":"196092144","INCLINATION":"53.0543","TLE_LINE2":"2 46167  53.0543 130.2603 0001394  56.6813 303.4309 15.06402891 82678","TIME_SYSTEM":"UTC","LAUNCH_DATE":"2020-08-18","MEAN_ELEMENT_THEORY":"SGP4","RA_OF_ASC_NODE":"130.2603","ARG_OF_PERICENTER":"56.6813","OBJECT_ID":"2020-057BC","BSTAR":"0.00018924000000","FILE":"3301890","SEMIMAJOR_AXIS":"6925.340","OBJECT_NAME":"STARLINK-1626","SITE":"AFETR","COUNTRY_CODE":"US","ECCENTRICITY":"0.00013940","NORAD_CAT_ID":"46167","EPOCH":"2022-02-16T12:57:30.007296","REF_FRAME":"TEME","OBJECT_TYPE":"PAYLOAD","DECAY_DATE":null,"APOAPSIS":"548.170","ELEMENT_SET_NO":"999","MEAN_ANOMALY":"303.4309","CLASSIFICATION_TYPE":"U","PERIOD":"95.592","TLE_LINE1":"1 46167U 20057BC  22047.53993064  .00002539  00000-0  18924-3 0  9998","MEAN_MOTION_DOT":"0.00002539","PERIAPSIS":"546.239","MEAN_MOTION_DDOT":"0.0000000000000","MEAN_MOTION":"15.06402891","RCS_SIZE":"LARGE","REV_AT_EPOCH":"8267","EPHEMERIS_TYPE":"0","CENTER_NAME":"EARTH"},{"SEMIMAJOR_AXIS":"6925.338","BSTAR":"0.00031923000000","FILE":"3302660","ARG_OF_PERICENTER":"63.8486","OBJECT_ID":"2020-057BD","MEAN_ELEMENT_THEORY":"SGP4","RA_OF_ASC_NODE":"79.1839","NORAD_CAT_ID":"46168","ECCENTRICITY":"0.00015970","COUNTRY_CODE":"US","SITE":"AFETR","OBJECT_NAME":"STARLINK-1627","TLE_LINE2":"2 46168  53.0534  79.1839 0001597  63.8486 296.2668 15.06403308 83405","LAUNCH_DATE":"2020-08-18","TIME_SYSTEM":"UTC","INCLINATION":"53.0534","GP_ID":"196130742","MEAN_MOTION_DDOT":"0.0000000000000","MEAN_MOTION_DOT":"0.00004477","PERIAPSIS":"546.097","TLE_LINE1":"1 46168U 20057BD  22047.77580596  .00004477  00000-0  31923-3 0  9994","CENTER_NAME":"EARTH","EPHEMERIS_TYPE":"0","REV_AT_EPOCH":"8340","MEAN_MOTION":"15.06403308","RCS_SIZE":"LARGE","ELEMENT_SET_NO":"999","DECAY_DATE":null,"APOAPSIS":"548.309","REF_FRAME":"TEME","OBJECT_TYPE":"PAYLOAD","EPOCH":"2022-02-16T18:37:09.634944","CLASSIFICATION_TYPE":"U","PERIOD":"95.592","MEAN_ANOMALY":"296.2668"},{"MEAN_MOTION_DOT":"0.00000682","PERIAPSIS":"548.742","MEAN_MOTION_DDOT":"0.0000000000000","TLE_LINE1":"1 46169U 20057BE  22047.69156870  .00000682  00000-0  65933-4 0  9993","EPHEMERIS_TYPE":"0","CENTER_NAME":"EARTH","MEAN_MOTION":"15.05587543","RCS_SIZE":"LARGE","REV_AT_EPOCH":"8266","DECAY_DATE":null,"APOAPSIS":"550.668","ELEMENT_SET_NO":"999","EPOCH":"2022-02-16T16:35:51.535680","REF_FRAME":"TEME","OBJECT_TYPE":"PAYLOAD","CLASSIFICATION_TYPE":"U","PERIOD":"95.644","MEAN_ANOMALY":"284.5132","BSTAR":"0.00006593300000","FILE":"3302660","SEMIMAJOR_AXIS":"6927.840","MEAN_ELEMENT_THEORY":"SGP4","RA_OF_ASC_NODE":"129.5545","ARG_OF_PERICENTER":"75.6010","OBJECT_ID":"2020-057BE","SITE":"AFETR","COUNTRY_CODE":"US","NORAD_CAT_ID":"46169","ECCENTRICITY":"0.00013900","OBJECT_NAME":"STARLINK-1628","INCLINATION":"52.9998","TLE_LINE2":"2 46169  52.9998 129.5545 0001390  75.6010 284.5132 15.05587543 82663","LAUNCH_DATE":"2020-08-18","TIME_SYSTEM":"UTC","GP_ID":"196129490"},{"OBJECT_NAME":"STARLINK-1633","SITE":"AFETR","COUNTRY_CODE":"US","ECCENTRICITY":"0.00016110","NORAD_CAT_ID":"46171","RA_OF_ASC_NODE":"109.7558","MEAN_ELEMENT_THEORY":"SGP4","OBJECT_ID":"2020-057BG","ARG_OF_PERICENTER":"53.7604","BSTAR":"0.00006171600000","FILE":"3302660","SEMIMAJOR_AXIS":"6925.355","GP_ID":"196129241","INCLINATION":"53.0533","TIME_SYSTEM":"UTC","LAUNCH_DATE":"2020-08-18","TLE_LINE2":"2 46171  53.0533 109.7558 0001611  53.7604 306.3534 15.06397766 84229","MEAN_MOTION":"15.06397766","RCS_SIZE":"LARGE","REV_AT_EPOCH":"8422","EPHEMERIS_TYPE":"0","CENTER_NAME":"EARTH","TLE_LINE1":"1 46171U 20057BG  22047.64865867  .00000638  00000-0  61716-4 0  9990","PERIAPSIS":"546.105","MEAN_MOTION_DOT":"0.00000638","MEAN_MOTION_DDOT":"0.0000000000000","MEAN_ANOMALY":"306.3534","PERIOD":"95.592","CLASSIFICATION_TYPE":"U","EPOCH":"2022-02-16T15:34:04.109088","OBJECT_TYPE":"PAYLOAD","REF_FRAME":"TEME","APOAPSIS":"548.336","DECAY_DATE":null,"ELEMENT_SET_NO":"999"},{"MEAN_MOTION":"15.06397977","RCS_SIZE":"LARGE","REV_AT_EPOCH":"8425","EPHEMERIS_TYPE":"0","CENTER_NAME":"EARTH","TLE_LINE1":"1 46172U 20057BH  22047.86243594  .00000583  00000-0  58059-4 0  9997","PERIAPSIS":"546.267","MEAN_MOTION_DOT":"0.00000583","MEAN_MOTION_DDOT":"0.0000000000000","MEAN_ANOMALY":"294.3378","PERIOD":"95.592","CLASSIFICATION_TYPE":"U","EPOCH":"2022-02-16T20:41:54.465216","OBJECT_TYPE":"PAYLOAD","REF_FRAME":"TEME","APOAPSIS":"548.173","DECAY_DATE":null,"ELEMENT_SET_NO":"999","OBJECT_NAME":"STARLINK-1635","COUNTRY_CODE":"US","SITE":"AFETR","NORAD_CAT_ID":"46172","ECCENTRICITY":"0.00013760","RA_OF_ASC_NODE":"108.8122","MEAN_ELEMENT_THEORY":"SGP4","OBJECT_ID":"2020-057BH","ARG_OF_PERICENTER":"65.7754","FILE":"3302660","BSTAR":"0.00005805900000","SEMIMAJOR_AXIS":"6925.355","GP_ID":"196130492","INCLINATION":"53.0538","LAUNCH_DATE":"2020-08-18","TIME_SYSTEM":"UTC","TLE_LINE2":"2 46172  53.0538 108.8122 0001376  65.7754 294.3378 15.06397977 84258"},{"OBJECT_NAME":"STARLINK-1640","NORAD_CAT_ID":"46173","ECCENTRICITY":"0.00014750","COUNTRY_CODE":"US","SITE":"AFETR","OBJECT_ID":"2020-057BJ","ARG_OF_PERICENTER":"65.6786","RA_OF_ASC_NODE":"128.5992","MEAN_ELEMENT_THEORY":"SGP4","SEMIMAJOR_AXIS":"6925.347","BSTAR":"0.00015141000000","FILE":"3302660","GP_ID":"196130243","TIME_SYSTEM":"UTC","LAUNCH_DATE":"2020-08-18","TLE_LINE2":"2 46173  53.0541 128.5992 0001475  65.6786 294.4357 15.06400489 82722","INCLINATION":"53.0541","REV_AT_EPOCH":"8272","RCS_SIZE":"LARGE","MEAN_MOTION":"15.06400489","CENTER_NAME":"EARTH","EPHEMERIS_TYPE":"0","TLE_LINE1":"1 46173U 20057BJ  22047.90850998  .00001974  00000-0  15141-3 0  9994","MEAN_MOTION_DDOT":"0.0000000000000","PERIAPSIS":"546.191","MEAN_MOTION_DOT":"0.00001974","MEAN_ANOMALY":"294.4357","PERIOD":"95.592","CLASSIFICATION_TYPE":"U","OBJECT_TYPE":"PAYLOAD","REF_FRAME":"TEME","EPOCH":"2022-02-16T21:48:15.262272","ELEMENT_SET_NO":"999","APOAPSIS":"548.234","DECAY_DATE":null}];
